start=new Date('2022-05-30T00:00:00.000Z').valueOf();
sats=[{"INCLINATION":"53.2152","SEMIMAJOR_AXIS":"6918.027","CENTER_NAME":"EARTH","RA_OF_ASC_NODE":"303.1751","OBJECT_NAME":"STARLINK-3075","MEAN_ANOMALY":"163.1748","APOAPSIS":"541.338","ELEMENT_SET_NO":"999","COUNTRY_CODE":"US","OBJECT_TYPE":"PAYLOAD","MEAN_MOTION_DDOT":"0.0000000000000","PERIOD":"95.441","REF_FRAME":"TEME","NORAD_CAT_ID":"49409","SITE":"AFETR","GP_ID":"204862179","FILE":"3471134","TLE_LINE2":"2 49409  53.2152 303.1751 0002090  37.9144 163.1748 15.08792056 31428","EPOCH":"2022-05-29T22:00:00.999936","BSTAR":"0.00179200000000","MEAN_MOTION":"15.08792056","CLASSIFICATION_TYPE":"U","REV_AT_EPOCH":"3142","TLE_LINE1":"1 49409U 21104B   22149.91667824  .00028310  00000-0  17920-2 0  9990","EPHEMERIS_TYPE":"0","ARG_OF_PERICENTER":"37.9144","LAUNCH_DATE":"2021-11-13","TIME_SYSTEM":"UTC","PERIAPSIS":"538.446","MEAN_ELEMENT_THEORY":"SGP4","ECCENTRICITY":"0.00020900","RCS_SIZE":"LARGE","OBJECT_ID":"2021-104B","DECAY_DATE":null,"MEAN_MOTION_DOT":"0.00028310"},{"SEMIMAJOR_AXIS":"6917.861","CENTER_NAME":"EARTH","INCLINATION":"53.2172","APOAPSIS":"541.634","OBJECT_NAME":"STARLINK-3147","MEAN_ANOMALY":"329.2968","RA_OF_ASC_NODE":"303.6713","NORAD_CAT_ID":"49410","REF_FRAME":"TEME","MEAN_MOTION_DDOT":"0.0000000000000","COUNTRY_CODE":"US","OBJECT_TYPE":"PAYLOAD","PERIOD":"95.437","ELEMENT_SET_NO":"999","BSTAR":"0.00032214000000","EPOCH":"2022-05-29T19:20:48.151968","TLE_LINE2":"2 49410  53.2172 303.6713 0002757  30.8185 329.2968 15.08846235 30317","GP_ID":"204892693","FILE":"3471362","SITE":"AFETR","CLASSIFICATION_TYPE":"U","MEAN_MOTION":"15.08846235","EPHEMERIS_TYPE":"0","ARG_OF_PERICENTER":"30.8185","REV_AT_EPOCH":"3031","TLE_LINE1":"1 49410U 21104C   22149.80611287  .00004843  00000-0  32214-3 0  9991","PERIAPSIS":"537.819","TIME_SYSTEM":"UTC","LAUNCH_DATE":"2021-11-13","MEAN_MOTION_DOT":"0.00004843","DECAY_DATE":null,"OBJECT_ID":"2021-104C","ECCENTRICITY":"0.00027570","RCS_SIZE":"LARGE","MEAN_ELEMENT_THEORY":"SGP4"},{"RA_OF_ASC_NODE":"293.1681","APOAPSIS":"541.351","OBJECT_NAME":"STARLINK-3162","MEAN_ANOMALY":"242.6883","INCLINATION":"53.2161","SEMIMAJOR_AXIS":"6918.000","CENTER_NAME":"EARTH","GP_ID":"204862212","FILE":"3471108","SITE":"AFETR","TLE_LINE2":"2 49411  53.2161 293.1681 0002148  33.3691 242.6883 15.08800821 31559","EPOCH":"2022-05-29T22:00:00.999936","BSTAR":"-0.00032400000000","ELEMENT_SET_NO":"999","NORAD_CAT_ID":"49411","REF_FRAME":"TEME","COUNTRY_CODE":"US","PERIOD":"95.440","OBJECT_TYPE":"PAYLOAD","MEAN_MOTION_DDOT":"0.0000000000000","REV_AT_EPOCH":"3155","TLE_LINE1":"1 49411U 21104D   22149.91667824 -.00005436  00000-0 -32400-3 0  9990","ARG_OF_PERICENTER":"33.3691","EPHEMERIS_TYPE":"0","MEAN_MOTION":"15.08800821","CLASSIFICATION_TYPE":"U","ECCENTRICITY":"0.00021480","RCS_SIZE":"LARGE","MEAN_ELEMENT_THEORY":"SGP4","OBJECT_ID":"2021-104D","DECAY_DATE":null,"MEAN_MOTION_DOT":"-0.00005436","LAUNCH_DATE":"2021-11-13","PERIAPSIS":"538.379","TIME_SYSTEM":"UTC"},{"RA_OF_ASC_NODE":"303.1736","APOAPSIS":"541.495","OBJECT_NAME":"STARLINK-3144","MEAN_ANOMALY":"195.1094","INCLINATION":"53.2153","SEMIMAJOR_AXIS":"6917.997","CENTER_NAME":"EARTH","TLE_LINE2":"2 49412  53.2153 303.1736 0002361  25.9664 195.1094 15.08801996  1308","BSTAR":"0.00225860000000","EPOCH":"2022-05-29T22:00:00.999936","GP_ID":"204891696","FILE":"3471362","SITE":"AFETR","REF_FRAME":"TEME","NORAD_CAT_ID":"49412","COUNTRY_CODE":"US","PERIOD":"95.440","OBJECT_TYPE":"PAYLOAD","MEAN_MOTION_DDOT":"0.0000000000000","ELEMENT_SET_NO":"999","ARG_OF_PERICENTER":"25.9664","EPHEMERIS_TYPE":"0","REV_AT_EPOCH":"130","TLE_LINE1":"1 49412U 21104E   22149.91667824  .00035804  00000-0  22586-2 0  9994","MEAN_MOTION":"15.08801996","CLASSIFICATION_TYPE":"U","DECAY_DATE":null,"MEAN_MOTION_DOT":"0.00035804","ECCENTRICITY":"0.00023610","RCS_SIZE":"LARGE","MEAN_ELEMENT_THEORY":"SGP4","OBJECT_ID":"2021-104E","PERIAPSIS":"538.228","TIME_SYSTEM":"UTC","LAUNCH_DATE":"2021-11-13"},{"TLE_LINE2":"2 49413  53.2150 293.1745 0002393  24.4637 271.5821 15.08797723 31563","BSTAR":"0.00006667100000","EPOCH":"2022-05-29T22:00:00.999936","SITE":"AFETR","FILE":"3471113","GP_ID":"204862794","PERIOD":"95.440","COUNTRY_CODE":"US","OBJECT_TYPE":"PAYLOAD","MEAN_MOTION_DDOT":"0.0000000000000","NORAD_CAT_ID":"49413","REF_FRAME":"TEME","ELEMENT_SET_NO":"999","RA_OF_ASC_NODE":"293.1745","MEAN_ANOMALY":"271.5821","OBJECT_NAME":"STARLINK-3157","APOAPSIS":"541.530","INCLINATION":"53.2150","SEMIMAJOR_AXIS":"6918.010","CENTER_NAME":"EARTH","DECAY_DATE":null,"MEAN_MOTION_DOT":"0.00000772","MEAN_ELEMENT_THEORY":"SGP4","RCS_SIZE":"LARGE","ECCENTRICITY":"0.00023930","OBJECT_ID":"2021-104F","TIME_SYSTEM":"UTC","PERIAPSIS":"538.219","LAUNCH_DATE":"2021-11-13","ARG_OF_PERICENTER":"24.4637","EPHEMERIS_TYPE":"0","TLE_LINE1":"1 49413U 21104F   22149.91667824  .00000772  00000-0  66671-4 0  9996","REV_AT_EPOCH":"3156","MEAN_MOTION":"15.08797723","CLASSIFICATION_TYPE":"U"},{"BSTAR":"-0.00008607800000","EPOCH":"2022-05-29T20:50:52.208448","TLE_LINE2":"2 49414  53.2161 303.3808 0002230  31.2044 328.9080 15.08831168 30327","SITE":"AFETR","GP_ID":"204892193","FILE":"3471362","PERIOD":"95.438","COUNTRY_CODE":"US","OBJECT_TYPE":"PAYLOAD","MEAN_MOTION_DDOT":"0.0000000000000","NORAD_CAT_ID":"49414","REF_FRAME":"TEME","ELEMENT_SET_NO":"999","MEAN_ANOMALY":"328.9080","OBJECT_NAME":"STARLINK-3146","APOAPSIS":"541.315","RA_OF_ASC_NODE":"303.3808","SEMIMAJOR_AXIS":"6917.907","CENTER_NAME":"EARTH","INCLINATION":"53.2161","MEAN_MOTION_DOT":"-0.00001658","DECAY_DATE":null,"OBJECT_ID":"2021-104G","MEAN_ELEMENT_THEORY":"SGP4","RCS_SIZE":"LARGE","ECCENTRICITY":"0.00022300","TIME_SYSTEM":"UTC","PERIAPSIS":"538.230","LAUNCH_DATE":"2021-11-13","EPHEMERIS_TYPE":"0","ARG_OF_PERICENTER":"31.2044","TLE_LINE1":"1 49414U 21104G   22149.86865982 -.00001658  00000-0 -86078-4 0  9995","REV_AT_EPOCH":"3032","CLASSIFICATION_TYPE":"U","MEAN_MOTION":"15.08831168"},{"LAUNCH_DATE":"2021-11-13","PERIAPSIS":"538.011","TIME_SYSTEM":"UTC","ECCENTRICITY":"0.00026790","RCS_SIZE":"LARGE","MEAN_ELEMENT_THEORY":"SGP4","OBJECT_ID":"2021-104H","DECAY_DATE":null,"MEAN_MOTION_DOT":"0.00027136","MEAN_MOTION":"15.08801243","CLASSIFICATION_TYPE":"U","REV_AT_EPOCH":"130","TLE_LINE1":"1 49415U 21104H   22149.91667824  .00027136  00000-0  17183-2 0  9993","ARG_OF_PERICENTER":"20.9889","EPHEMERIS_TYPE":"0","ELEMENT_SET_NO":"999","REF_FRAME":"TEME","NORAD_CAT_ID":"49415","COUNTRY_CODE":"US","OBJECT_TYPE":"PAYLOAD","MEAN_MOTION_DDOT":"0.0000000000000","PERIOD":"95.440","GP_ID":"204890946","FILE":"3471362","SITE":"AFETR","TLE_LINE2":"2 49415  53.2150 293.1748 0002679  20.9889 295.0879 15.08801243  1301","EPOCH":"2022-05-29T22:00:00.999936","BSTAR":"0.00171830000000","INCLINATION":"53.2150","CENTER_NAME":"EARTH","SEMIMAJOR_AXIS":"6917.999","RA_OF_ASC_NODE":"293.1748","APOAPSIS":"541.717","MEAN_ANOMALY":"295.0879","OBJECT_NAME":"STARLINK-3159"},{"SITE":"AFETR","FILE":"3471362","GP_ID":"204891196","EPOCH":"2022-05-29T22:00:00.999936","BSTAR":"0.00022675000000","TLE_LINE2":"2 49416  53.2160 303.1585 0002662  22.8883 278.2223 15.08797476  1309","ELEMENT_SET_NO":"999","COUNTRY_CODE":"US","PERIOD":"95.440","OBJECT_TYPE":"PAYLOAD","MEAN_MOTION_DDOT":"0.0000000000000","NORAD_CAT_ID":"49416","REF_FRAME":"TEME","MEAN_ANOMALY":"278.2223","OBJECT_NAME":"STARLINK-3133","APOAPSIS":"541.717","RA_OF_ASC_NODE":"303.1585","CENTER_NAME":"EARTH","SEMIMAJOR_AXIS":"6918.010","INCLINATION":"53.2160","OBJECT_ID":"2021-104J","MEAN_ELEMENT_THEORY":"SGP4","RCS_SIZE":"LARGE","ECCENTRICITY":"0.00026620","MEAN_MOTION_DOT":"0.00003318","DECAY_DATE":null,"LAUNCH_DATE":"2021-11-13","TIME_SYSTEM":"UTC","PERIAPSIS":"538.034","TLE_LINE1":"1 49416U 21104J   22149.91667824  .00003318  00000-0  22675-3 0  9993","REV_AT_EPOCH":"130","EPHEMERIS_TYPE":"0","ARG_OF_PERICENTER":"22.8883","CLASSIFICATION_TYPE":"U","MEAN_MOTION":"15.08797476"},{"INCLINATION":"53.2188","CENTER_NAME":"EARTH","SEMIMAJOR_AXIS":"6917.890","RA_OF_ASC_NODE":"293.7448","OBJECT_NAME":"STARLINK-3154","MEAN_ANOMALY":"326.2521","APOAPSIS":"541.357","OBJECT_TYPE":"PAYLOAD","COUNTRY_CODE":"US","PERIOD":"95.438","MEAN_MOTION_DDOT":"0.0000000000000","NORAD_CAT_ID":"49417","REF_FRAME":"TEME","ELEMENT_SET_NO":"999","TLE_LINE2":"2 49417  53.2188 293.7448 0002316  33.8618 326.2521 15.08836871 30441","BSTAR":"0.00010032000000","EPOCH":"2022-05-29T18:55:37.444512","SITE":"AFETR","FILE":"3471362","GP_ID":"204892447","MEAN_MOTION":"15.08836871","CLASSIFICATION_TYPE":"U","ARG_OF_PERICENTER":"33.8618","EPHEMERIS_TYPE":"0","REV_AT_EPOCH":"3044","TLE_LINE1":"1 49417U 21104K   22149.78862783  .00001309  00000-0  10032-3 0  9992","TIME_SYSTEM":"UTC","PERIAPSIS":"538.153","LAUNCH_DATE":"2021-11-13","DECAY_DATE":null,"MEAN_MOTION_DOT":"0.00001309","MEAN_ELEMENT_THEORY":"SGP4","RCS_SIZE":"LARGE","ECCENTRICITY":"0.00023160","OBJECT_ID":"2021-104K"},{"RA_OF_ASC_NODE":"303.7279","APOAPSIS":"541.428","MEAN_ANOMALY":"325.3517","OBJECT_NAME":"STARLINK-3111","INCLINATION":"53.2199","CENTER_NAME":"EARTH","SEMIMAJOR_AXIS":"6917.882","GP_ID":"204892694","FILE":"3471362","SITE":"AFETR","TLE_LINE2":"2 49418  53.2199 303.7279 0002431  34.7634 325.3517 15.08839595 30300","EPOCH":"2022-05-29T18:59:35.619936","BSTAR":"-0.00000584190000","ELEMENT_SET_NO":"999","NORAD_CAT_ID":"49418","REF_FRAME":"TEME","COUNTRY_CODE":"US","OBJECT_TYPE":"PAYLOAD","MEAN_MOTION_DDOT":"0.0000000000000","PERIOD":"95.438","TLE_LINE1":"1 49418U 21104L   22149.79138449 -.00000381  00000-0 -58419-5 0  9993","REV_AT_EPOCH":"3030","ARG_OF_PERICENTER":"34.7634","EPHEMERIS_TYPE":"0","MEAN_MOTION":"15.08839595","CLASSIFICATION_TYPE":"U","RCS_SIZE":"LARGE","ECCENTRICITY":"0.00024310","MEAN_ELEMENT_THEORY":"SGP4","OBJECT_ID":"2021-104L","DECAY_DATE":null,"MEAN_MOTION_DOT":"-0.00000381","LAUNCH_DATE":"2021-11-13","PERIAPSIS":"538.065","TIME_SYSTEM":"UTC"}];
